<?xml version="1.0" encoding="utf-8" ?>
<kml xmlns="http://www.opengis.net/kml/2.2">
<Document id="root_doc">
<Folder><name>candidates</name>
  <Placemark id="candidates.1">
	<name>H1</name>
	<description>+0.9 ft above the wetland median in both flights; mapped 19 Munden 42% / 7 Bojac 34% / 24 Nimmo 24%; adjoins your upland. Against: your point 4 is in it</description>
	<Style><LineStyle><color>ff0000ff</color></LineStyle><PolyStyle><fill>0</fill></PolyStyle></Style>
      <Polygon><outerBoundaryIs><LinearRing><coordinates>-76.021166839428,36.5792494585423 -76.0212330638398,36.5791857886193 -76.021255415642,36.579185597114 -76.0212996443297,36.5791491595593 -76.0213318659588,36.5790497223196 -76.0212195135486,36.5790056117063 -76.0211723170696,36.5788167083916 -76.0211384333987,36.5787899547205 -76.0209477319174,36.5787375003737 -76.0208802021779,36.578702020159 -76.0208354988469,36.5787024030204 -76.0208136218632,36.5787386489845 -76.0208587999192,36.57877432067 -76.0209036219727,36.5787829514338 -76.0209150351822,36.5788008829825 -76.0210049167275,36.5788361717185 -76.0211057367995,36.578853337379 -76.0211397391967,36.5788891046926 -76.0211408075816,36.5789702273958 -76.0210750580821,36.5790699518028 -76.0210656627204,36.5792052520426 -76.0211109598745,36.5792499372569 -76.021166839428,36.5792494585423</coordinates></LinearRing></outerBoundaryIs></Polygon>
  </Placemark>
  <Placemark id="candidates.2">
	<name>B1</name>
	<description>west bank of the ditch, same distance as your east-side upland</description>
	<Style><LineStyle><color>ff0000ff</color></LineStyle><PolyStyle><fill>0</fill></PolyStyle></Style>
      <Polygon><outerBoundaryIs><LinearRing><coordinates>-76.0206580212048,36.5822016066013 -76.0207134281977,36.5821650735462 -76.0207709918326,36.5814434088418 -76.0208347260367,36.5811904528771 -76.0208340139355,36.5811363710901 -76.0208558915593,36.5811001251262 -76.0208658808697,36.5810098930928 -76.0208877584443,36.5809736471232 -76.0208977477048,36.580883415086 -76.0209939411109,36.5805490491667 -76.0210337786593,36.5801791073255 -76.0210668319692,36.5801427655872 -76.0210664758509,36.580115724691 -76.0211102303059,36.5800432326741 -76.0211324636428,36.580034027556 -76.0211870378463,36.579934398871 -76.0212422055385,36.5798798383216 -76.0212638451737,36.5798255650199 -76.0212860784298,36.579816359874 -76.021296779496,36.5797802095878 -76.0213411272328,36.5797527856482 -76.0213408897602,36.5797347583845 -76.0213962946885,36.5796982250296 -76.0213960572036,36.5796801977659 -76.021440404848,36.5796527737904 -76.0214401673532,36.5796347465269 -76.0214955721633,36.5795982131271 -76.0214953346561,36.5795801858637 -76.0215507394013,36.579543652439 -76.0215615590698,36.5795165157615 -76.0216514417353,36.5795518039881 -76.0216628552335,36.5795697354585 -76.0217301485241,36.5795871879452 -76.0217415620457,36.5796051194075 -76.0219662693163,36.5796933394964 -76.0219997972313,36.5796930520273 -76.0220897991182,36.5797373535459 -76.022123327051,36.5797370660417 -76.0222357998654,36.5797901894024 -76.0223700305349,36.5797980527923 -76.0223921447883,36.5797798338133 -76.0223571905868,36.5796719578448 -76.0223233061343,36.5796452045266 -76.0222897782434,36.5796454920864 -76.0221997763538,36.5796011907182 -76.0221662484806,36.579601478243 -76.0220537759891,36.57954835481 -76.0220202481373,36.5795486422934 -76.0218404825719,36.5794780663321 -76.0218290690471,36.579460134879 -76.0217617758465,36.5794426824464 -76.0217503623451,36.5794247509852 -76.0216830691921,36.5794072985073 -76.0216716557141,36.5793893670381 -76.0216043626087,36.579371914515 -76.0215704785444,36.5793451609753 -76.0215034230058,36.579345735658 -76.0213929699188,36.5794458433337 -76.0213932074009,36.579463870598 -76.0213378026359,36.5795004039503 -76.0213380401057,36.5795184312148 -76.0212936925,36.5795458551522 -76.0212939299599,36.5795638824168 -76.0212385250767,36.5796004157242 -76.0212387625243,36.5796184429889 -76.0211833575761,36.5796549762714 -76.0211835950114,36.5796730035363 -76.0211392472624,36.5797004274177 -76.0211176075723,36.5797547006988 -76.0210953743129,36.5797639058134 -76.0210078655972,36.5799088898227 -76.0209526977174,36.5799634502663 -76.0208435485258,36.5801627074062 -76.020814530136,36.5805055125875 -76.0207926526538,36.5805417585451 -76.0207826633052,36.5806319905797 -76.0207607857737,36.5806682365314 -76.0207507963752,36.5807584685623 -76.0207289187944,36.5807947145082 -76.0205913415804,36.5813818447007 -76.0205532812404,36.5818869908275 -76.0205223626762,36.582085577782 -76.0205236678431,36.5821847277182 -76.0205462578237,36.5822025635933 -76.0206580212048,36.5822016066013</coordinates></LinearRing></outerBoundaryIs></Polygon>
  </Placemark>
  <Placemark id="candidates.3">
	<name>S1</name>
	<description>mapped 19 Munden 74% / 7 Bojac 25%; adjoins your upland</description>
	<Style><LineStyle><color>ff0000ff</color></LineStyle><PolyStyle><fill>0</fill></PolyStyle></Style>
      <Polygon><outerBoundaryIs><LinearRing><coordinates>-76.0222538735175,36.5794655070448 -76.0222757500185,36.579429260828 -76.0222180878043,36.5792945356145 -76.0221826587523,36.5791506050575 -76.02215995048,36.579123755845 -76.0221478239726,36.5790517426379 -76.0221252345664,36.5790339070485 -76.0220359463695,36.5790436873252 -76.0220026563561,36.5790620020623 -76.0216905630963,36.5791277801323 -76.0216566791116,36.5791010266148 -76.0212869249796,36.5790320780872 -76.0212195135486,36.5790056117063 -76.0211723170696,36.5788167083916 -76.0211384333987,36.5787899547205 -76.0209477319174,36.5787375003737 -76.0208802021779,36.578702020159 -76.0208354988469,36.5787024030204 -76.020813384522,36.5787206217147 -76.0208271711506,36.5789188259672 -76.0208949384199,36.5789723334767 -76.0209623497152,36.5789988000435 -76.0210981220833,36.5791238421289 -76.0215793979887,36.5791738061842 -76.0217253973325,36.5792266426928 -76.02179257155,36.5792350815182 -76.021815160941,36.5792529171704 -76.021960922976,36.5792877261231 -76.0219836312297,36.5793145753731 -76.0220059830637,36.5793143837265 -76.0220286913408,36.5793412329674 -76.0220510431823,36.5793410413122 -76.0220737514828,36.5793678905441 -76.0220961033316,36.5793676988804 -76.0221188116556,36.5793945481032 -76.0221411635118,36.5793943564308 -76.0222538735175,36.5794655070448</coordinates></LinearRing></outerBoundaryIs></Polygon>
  </Placemark>
  <Placemark id="candidates.4">
	<name>H2</name>
	<description>+0.8 ft above the wetland median in both flights. Against: your point 8 is in it</description>
	<Style><LineStyle><color>ff0000ff</color></LineStyle><PolyStyle><fill>0</fill></PolyStyle></Style>
      <Polygon><outerBoundaryIs><LinearRing><coordinates>-76.0213276514187,36.5821237534234 -76.021371881715,36.582087315834 -76.0213716442151,36.5820692885775 -76.0214270507707,36.5820327551966 -76.0214597483836,36.5819693724665 -76.0214593921047,36.5819423315819 -76.0214030356038,36.5819067559501 -76.021391265554,36.5818617835807 -76.0214358519423,36.5818523868542 -76.0214585607891,36.581879236184 -76.0214920896547,36.5818789488429 -76.0215259748209,36.5819057023768 -76.0215595036971,36.5819054150166 -76.0215926762484,36.5818780867633 -76.0215699673561,36.5818512374598 -76.0215364385033,36.5818515248225 -76.0214912583144,36.581815853445 -76.0214906645015,36.5817707853032 -76.0215681857818,36.5817160330375 -76.0214891205941,36.5816536081329 -76.0214559480998,36.5816809363575 -76.0214335955797,36.5816811279116 -76.0213884155383,36.5816454564918 -76.0213324155184,36.581636921708 -76.0212867605971,36.5815651957314 -76.0212644081091,36.5815653872532 -76.0212201780533,36.5816018248021 -76.0211866493048,36.5816021120648 -76.0211424191911,36.5816385495854 -76.0211210164331,36.5817108501172 -76.0210205487491,36.5817207254252 -76.0209639552065,36.5816671223189 -76.0209625308011,36.5815589587575 -76.0209286459799,36.5815322050565 -76.0209169949607,36.5814962462627 -76.0209274590217,36.5814420687525 -76.0210162753103,36.5813962347436 -76.0210046242727,36.5813602759579 -76.0209820344388,36.581342440165 -76.0209149771606,36.5813430145435 -76.0208818045904,36.5813703426108 -76.0208259235035,36.5813708212155 -76.0208038084302,36.5813890399119 -76.0208049952423,36.5814791762202 -76.0208165275241,36.5815061213952 -76.0208841783997,36.5815506152223 -76.0208844157818,36.5815686424831 -76.0208511244186,36.5815869569121 -76.0208634875558,36.5816769974941 -76.0208081996615,36.5817225442457 -76.0207881020602,36.5818939946546 -76.0208219869949,36.5819207483922 -76.0209001023768,36.5819110647025 -76.0210010451492,36.5819372440103 -76.0210688152248,36.5819907513512 -76.0211359917821,36.5819991905065 -76.0212147008555,36.5820345747545 -76.0212711761046,36.582079164103 -76.0212714135813,36.5820971913601 -76.02130529877,36.5821239449554 -76.0213276514187,36.5821237534234</coordinates></LinearRing></outerBoundaryIs><innerBoundaryIs><LinearRing><coordinates>-76.0214238443729,36.5817893872307 -76.0214014918213,36.5817895787792 -76.021389959293,36.5817626336659 -76.0214230130908,36.5817262918305 -76.0214565418906,36.5817260045005 -76.0214568981657,36.5817530453861 -76.0214238443729,36.5817893872307</coordinates></LinearRing></innerBoundaryIs></Polygon>
  </Placemark>
  <Placemark id="candidates.5">
	<name>H3</name>
	<description>+0.7 ft above the wetland median in both flights; adjoins your upland</description>
	<Style><LineStyle><color>ff0000ff</color></LineStyle><PolyStyle><fill>0</fill></PolyStyle></Style>
      <Polygon><outerBoundaryIs><LinearRing><coordinates>-76.0203017606324,36.5797616870775 -76.0203457528581,36.5797072225986 -76.0204463366705,36.5797063615299 -76.0204795086992,36.579679033585 -76.0204877187615,36.5794535970386 -76.0205535879809,36.5793628865797 -76.0205531134089,36.5793268320409 -76.0205187551654,36.5792640236566 -76.0204738142385,36.5792463791173 -76.0204507506298,36.5791924886652 -76.0203831020873,36.5791479945388 -76.0203488626812,36.5790941997359 -76.0203155722365,36.5791125140082 -76.0203164025383,36.5791756094579 -76.0202726478044,36.5792481011977 -76.0202504145847,36.5792573061547 -76.0202511262301,36.5793113879686 -76.0201957210214,36.5793479207976 -76.0201740807591,36.5794021939193 -76.0202679954468,36.5797439467997 -76.0203017606324,36.5797616870775</coordinates></LinearRing></outerBoundaryIs><innerBoundaryIs><LinearRing><coordinates>-76.0203664440994,36.5795808403704 -76.0202993883318,36.579581414379 -76.020287975144,36.5795634827733 -76.0202984394175,36.5795093052981 -76.0202646743438,36.5794915650169 -76.0202741897382,36.5793652784598 -76.0203412453195,36.5793647044683 -76.0203752475991,36.579400471999 -76.0203761965812,36.5794725810796 -76.0203987857232,36.5794904170035 -76.0204106734339,36.579544403138 -76.0203664440994,36.5795808403704</coordinates></LinearRing></innerBoundaryIs></Polygon>
  </Placemark>
</Folder>
</Document></kml>
