{
"type": "FeatureCollection",
"name": "candidates",
"crs": { "type": "name", "properties": { "name": "urn:ogc:def:crs:OGC:1.3:CRS84" } },
"features": [
{ "type": "Feature", "properties": { "id": "H1", "type": "high", "tags": "high+soil", "n_evidence": 2, "acres": 0.2, "elev_ft_2013": 8.36, "elev_ft_2023": 8.53, "vs_wet_median_ft": 0.95, "vs_rick_upland_pts_ft": 0.06, "pct_high": 100, "pct_nonhydric_soil": 76, "pct_west_bank": 0, "soil": "19 Munden 42% / 7 Bojac 34% / 24 Nimmo 24%", "ft_to_ditch": 81, "touches_rick_upland": true, "nearest_rick_pt": "4 (wetland, 0 ft, +0.17 ft vs it)", "rick_pt_inside": "4", "lat": 36.578987990019961, "lon": -76.021171935887921, "rationale": "+0.9 ft above the wetland median in both flights; mapped 19 Munden 42% / 7 Bojac 34% / 24 Nimmo 24%; adjoins your upland. Against: your point 4 is in it" }, "geometry": { "type": "Polygon", "coordinates": [ [ [ -76.021166839427991, 36.579249458542328 ], [ -76.021233063839816, 36.579185788619334 ], [ -76.021255415642031, 36.579185597114034 ], [ -76.021299644329744, 36.579149159559336 ], [ -76.021331865958771, 36.57904972231956 ], [ -76.02121951354863, 36.579005611706258 ], [ -76.021172317069571, 36.578816708391614 ], [ -76.021138433398733, 36.578789954720506 ], [ -76.020947731917445, 36.57873750037372 ], [ -76.020880202177949, 36.578702020159042 ], [ -76.020835498846878, 36.578702403020444 ], [ -76.020813621863169, 36.578738648984526 ], [ -76.020858799919196, 36.578774320669972 ], [ -76.020903621972664, 36.578782951433787 ], [ -76.020915035182156, 36.578800882982492 ], [ -76.021004916727534, 36.578836171718478 ], [ -76.021105736799527, 36.578853337378959 ], [ -76.021139739196698, 36.578889104692585 ], [ -76.021140807581602, 36.57897022739575 ], [ -76.021075058082076, 36.579069951802801 ], [ -76.021065662720389, 36.579205252042556 ], [ -76.021110959874534, 36.57924993725694 ], [ -76.021166839427991, 36.579249458542328 ] ] ] } },
{ "type": "Feature", "properties": { "id": "B1", "type": "bank", "tags": "bank", "n_evidence": 1, "acres": 1.68, "elev_ft_2013": 7.31, "elev_ft_2023": 7.53, "vs_wet_median_ft": -0.04, "vs_rick_upland_pts_ft": -0.94, "pct_high": 3, "pct_nonhydric_soil": 0, "pct_west_bank": 100, "soil": "24 Nimmo 75% / 29 Portsmouth 25%", "ft_to_ditch": 13, "touches_rick_upland": false, "nearest_rick_pt": "1 (upland, 57 ft, +0.44 ft vs it)", "rick_pt_inside": "", "lat": 36.580775781852509, "lon": -76.020834401622295, "rationale": "west bank of the ditch, same distance as your east-side upland" }, "geometry": { "type": "Polygon", "coordinates": [ [ [ -76.020658021204767, 36.582201606601323 ], [ -76.020713428197737, 36.582165073546243 ], [ -76.020770991832578, 36.581443408841757 ], [ -76.020834726036668, 36.581190452877095 ], [ -76.020834013935499, 36.581136371090125 ], [ -76.020855891559322, 36.581100125126248 ], [ -76.020865880869749, 36.581009893092848 ], [ -76.02088775844426, 36.580973647123159 ], [ -76.020897747704765, 36.580883415086049 ], [ -76.020993941110873, 36.580549049166741 ], [ -76.021033778659316, 36.580179107325456 ], [ -76.021066831969151, 36.580142765587205 ], [ -76.021066475850944, 36.580115724690984 ], [ -76.021110230305865, 36.580043232674136 ], [ -76.021132463642758, 36.580034027555989 ], [ -76.021187037846346, 36.579934398871046 ], [ -76.021242205538456, 36.579879838321631 ], [ -76.021263845173678, 36.579825565019881 ], [ -76.021286078429839, 36.579816359874016 ], [ -76.021296779496026, 36.579780209587803 ], [ -76.021341127232759, 36.579752785648232 ], [ -76.021340889760182, 36.579734758384454 ], [ -76.021396294688529, 36.579698225029553 ], [ -76.021396057203603, 36.579680197765924 ], [ -76.021440404847965, 36.579652773790414 ], [ -76.021440167353177, 36.579634746526892 ], [ -76.021495572163289, 36.579598213127099 ], [ -76.021495334656137, 36.579580185863712 ], [ -76.021550739401263, 36.57954365243895 ], [ -76.021561559069809, 36.579516515761476 ], [ -76.021651441735258, 36.579551803988146 ], [ -76.021662855233473, 36.579569735458499 ], [ -76.021730148524057, 36.579587187945179 ], [ -76.021741562045676, 36.579605119407518 ], [ -76.021966269316337, 36.579693339496444 ], [ -76.021999797231345, 36.579693052027288 ], [ -76.02208979911822, 36.579737353545923 ], [ -76.022123327050963, 36.57973706604173 ], [ -76.022235799865399, 36.579790189402367 ], [ -76.022370030534901, 36.579798052792285 ], [ -76.022392144788284, 36.57977983381334 ], [ -76.022357190586845, 36.579671957844788 ], [ -76.022323306134339, 36.579645204526557 ], [ -76.022289778243405, 36.579645492086378 ], [ -76.022199776353787, 36.579601190718215 ], [ -76.022166248480602, 36.579601478242999 ], [ -76.022053775989122, 36.579548354810029 ], [ -76.022020248137267, 36.579548642293403 ], [ -76.021840482571946, 36.579478066332143 ], [ -76.021829069047072, 36.579460134878978 ], [ -76.021761775846528, 36.579442682446398 ], [ -76.021750362345074, 36.579424750985197 ], [ -76.021683069192093, 36.579407298507327 ], [ -76.021671655714073, 36.579389367038132 ], [ -76.021604362608656, 36.579371914514958 ], [ -76.021570478544405, 36.579345160975265 ], [ -76.021503423005782, 36.579345735657988 ], [ -76.02139296991875, 36.579445843333659 ], [ -76.021393207400934, 36.579463870598026 ], [ -76.021337802635927, 36.579500403950306 ], [ -76.021338040105746, 36.579518431214794 ], [ -76.021293692499967, 36.579545855152205 ], [ -76.021293929959938, 36.579563882416814 ], [ -76.021238525076711, 36.579600415724187 ], [ -76.02123876252432, 36.579618442988945 ], [ -76.021183357576092, 36.579654976271364 ], [ -76.021183595011351, 36.579673003536264 ], [ -76.02113924726244, 36.579700427417734 ], [ -76.021117607572279, 36.579754700698807 ], [ -76.021095374312864, 36.579763905813365 ], [ -76.021007865597184, 36.579908889822725 ], [ -76.020952697717377, 36.579963450266305 ], [ -76.020843548525804, 36.580162707406224 ], [ -76.020814530135979, 36.580505512587528 ], [ -76.020792652653768, 36.58054175854506 ], [ -76.020782663305198, 36.58063199057969 ], [ -76.020760785773689, 36.580668236531388 ], [ -76.020750796375182, 36.580758468562308 ], [ -76.020728918794362, 36.580794714508201 ], [ -76.020591341580371, 36.581381844700708 ], [ -76.020553281240439, 36.581886990827492 ], [ -76.020522362676203, 36.582085577781967 ], [ -76.020523667843065, 36.582184727718158 ], [ -76.020546257823668, 36.582202563593285 ], [ -76.020658021204767, 36.582201606601323 ] ] ] } },
{ "type": "Feature", "properties": { "id": "S1", "type": "soil", "tags": "soil", "n_evidence": 1, "acres": 0.68, "elev_ft_2013": 7.73, "elev_ft_2023": 7.93, "vs_wet_median_ft": 0.4, "vs_rick_upland_pts_ft": -0.54, "pct_high": 28, "pct_nonhydric_soil": 100, "pct_west_bank": 0, "soil": "19 Munden 74% / 7 Bojac 25%", "ft_to_ditch": 40, "touches_rick_upland": true, "nearest_rick_pt": "4 (wetland, 17 ft, -0.43 ft vs it)", "rick_pt_inside": "", "lat": 36.579085952980797, "lon": -76.021311785239817, "rationale": "mapped 19 Munden 74% / 7 Bojac 25%; adjoins your upland" }, "geometry": { "type": "Polygon", "coordinates": [ [ [ -76.022253873517499, 36.579465507044773 ], [ -76.022275750018451, 36.579429260827986 ], [ -76.022218087804347, 36.579294535614473 ], [ -76.022182658752271, 36.579150605057471 ], [ -76.022159950479974, 36.579123755844961 ], [ -76.022147823972645, 36.579051742637922 ], [ -76.022125234566403, 36.579033907048483 ], [ -76.022035946369513, 36.57904368732521 ], [ -76.022002656356051, 36.579062002062315 ], [ -76.021690563096257, 36.579127780132289 ], [ -76.021656679111587, 36.579101026614815 ], [ -76.021286924979606, 36.579032078087231 ], [ -76.02121951354863, 36.579005611706258 ], [ -76.021172317069571, 36.578816708391614 ], [ -76.021138433398733, 36.578789954720506 ], [ -76.020947731917445, 36.57873750037372 ], [ -76.020880202177949, 36.578702020159042 ], [ -76.020835498846878, 36.578702403020444 ], [ -76.020813384522, 36.578720621714716 ], [ -76.020827171150614, 36.578918825967165 ], [ -76.020894938419872, 36.578972333476685 ], [ -76.020962349715248, 36.57899880004355 ], [ -76.021098122083288, 36.579123842128944 ], [ -76.02157939798866, 36.579173806184158 ], [ -76.021725397332489, 36.579226642692809 ], [ -76.021792571550037, 36.57923508151822 ], [ -76.021815160940989, 36.579252917170407 ], [ -76.021960922975993, 36.57928772612307 ], [ -76.021983631229659, 36.57931457537309 ], [ -76.02200598306375, 36.579314383726469 ], [ -76.022028691340836, 36.579341232967423 ], [ -76.022051043182287, 36.57934104131224 ], [ -76.022073751482822, 36.579367890544113 ], [ -76.022096103331634, 36.579367698880361 ], [ -76.022118811655588, 36.57939454810316 ], [ -76.02214116351179, 36.579394356430846 ], [ -76.022253873517499, 36.579465507044773 ] ] ] } },
{ "type": "Feature", "properties": { "id": "H2", "type": "high", "tags": "high", "n_evidence": 1, "acres": 0.67, "elev_ft_2013": 8.21, "elev_ft_2023": 8.42, "vs_wet_median_ft": 0.81, "vs_rick_upland_pts_ft": -0.06, "pct_high": 100, "pct_nonhydric_soil": 0, "pct_west_bank": 0, "soil": "24 Nimmo 81% / 29 Portsmouth 19%", "ft_to_ditch": 74, "touches_rick_upland": false, "nearest_rick_pt": "8 (wetland, 0 ft, -0.30 ft vs it)", "rick_pt_inside": "8", "lat": 36.581742512148971, "lon": -76.02110808660187, "rationale": "+0.8 ft above the wetland median in both flights. Against: your point 8 is in it" }, "geometry": { "type": "Polygon", "coordinates": [ [ [ -76.02132765141873, 36.582123753423438 ], [ -76.021371881714998, 36.582087315834009 ], [ -76.02137164421508, 36.582069288577486 ], [ -76.021427050770683, 36.582032755196572 ], [ -76.021459748383634, 36.581969372466453 ], [ -76.021459392104731, 36.581942331581864 ], [ -76.021403035603839, 36.581906755950065 ], [ -76.021391265553973, 36.581861783580671 ], [ -76.021435851942329, 36.581852386854187 ], [ -76.021458560789142, 36.581879236183951 ], [ -76.021492089654657, 36.581878948842927 ], [ -76.021525974820875, 36.581905702376815 ], [ -76.021559503697134, 36.581905415016649 ], [ -76.021592676248375, 36.581878086763297 ], [ -76.021569967356072, 36.581851237459794 ], [ -76.021536438503347, 36.58185152482254 ], [ -76.02149125831437, 36.581815853445001 ], [ -76.021490664501457, 36.581770785303206 ], [ -76.02156818578176, 36.58171603303748 ], [ -76.021489120594083, 36.581653608132896 ], [ -76.021455948099813, 36.581680936357515 ], [ -76.02143359557968, 36.581681127911587 ], [ -76.021388415538269, 36.581645456491778 ], [ -76.021332415518444, 36.58163692170799 ], [ -76.021286760597079, 36.581565195731422 ], [ -76.021264408109133, 36.581565387253242 ], [ -76.021220178053284, 36.581601824802085 ], [ -76.021186649304752, 36.581602112064758 ], [ -76.021142419191136, 36.581638549585421 ], [ -76.021121016433085, 36.581710850117155 ], [ -76.021020548749064, 36.581720725425235 ], [ -76.020963955206511, 36.581667122318933 ], [ -76.020962530801057, 36.581558958757533 ], [ -76.020928645979879, 36.581532205056519 ], [ -76.020916994960729, 36.581496246262724 ], [ -76.020927459021692, 36.581442068752459 ], [ -76.02101627531033, 36.581396234743636 ], [ -76.021004624272692, 36.581360275957927 ], [ -76.020982034438802, 36.581342440165002 ], [ -76.020914977160615, 36.581343014543485 ], [ -76.020881804590374, 36.581370342610803 ], [ -76.020825923503494, 36.581370821215494 ], [ -76.020803808430173, 36.581389039911869 ], [ -76.020804995242329, 36.581479176220213 ], [ -76.020816527524076, 36.581506121395236 ], [ -76.020884178399697, 36.58155061522227 ], [ -76.020884415781779, 36.581568642483106 ], [ -76.020851124418584, 36.581586956912105 ], [ -76.020863487555843, 36.581676997494114 ], [ -76.020808199661488, 36.58172254424575 ], [ -76.02078810206018, 36.581893994654557 ], [ -76.020821986994946, 36.581920748392221 ], [ -76.020900102376757, 36.58191106470246 ], [ -76.021001045149234, 36.581937244010319 ], [ -76.021068815224766, 36.581990751351185 ], [ -76.021135991782117, 36.581999190506515 ], [ -76.021214700855467, 36.582034574754488 ], [ -76.021271176104619, 36.582079164103021 ], [ -76.02127141358126, 36.582097191360077 ], [ -76.021305298770031, 36.582123944955434 ], [ -76.02132765141873, 36.582123753423438 ] ], [ [ -76.021423844372876, 36.581789387230707 ], [ -76.021401491821251, 36.581789578779244 ], [ -76.021389959293003, 36.581762633665925 ], [ -76.021423013090825, 36.581726291830492 ], [ -76.021456541890586, 36.581726004500496 ], [ -76.021456898165695, 36.581753045386101 ], [ -76.021423844372876, 36.581789387230707 ] ] ] } },
{ "type": "Feature", "properties": { "id": "H3", "type": "high", "tags": "high", "n_evidence": 1, "acres": 0.31, "elev_ft_2013": 8.14, "elev_ft_2023": 8.29, "vs_wet_median_ft": 0.69, "vs_rick_upland_pts_ft": -0.19, "pct_high": 100, "pct_nonhydric_soil": 0, "pct_west_bank": 0, "soil": "24 Nimmo 100%", "ft_to_ditch": 162, "touches_rick_upland": true, "nearest_rick_pt": "3 (upland, 42 ft, -0.19 ft vs it)", "rick_pt_inside": "", "lat": 36.579426948422729, "lon": -76.020441541506074, "rationale": "+0.7 ft above the wetland median in both flights; adjoins your upland" }, "geometry": { "type": "Polygon", "coordinates": [ [ [ -76.020301760632449, 36.579761687077458 ], [ -76.020345752858063, 36.579707222598557 ], [ -76.020446336670517, 36.579706361529873 ], [ -76.020479508699211, 36.579679033584974 ], [ -76.020487718761458, 36.579453597038622 ], [ -76.020553587980871, 36.579362886579723 ], [ -76.020553113408866, 36.579326832040891 ], [ -76.020518755165355, 36.579264023656563 ], [ -76.020473814238471, 36.579246379117308 ], [ -76.020450750629834, 36.579192488665242 ], [ -76.020383102087337, 36.579147994538815 ], [ -76.020348862681246, 36.579094199735891 ], [ -76.020315572236527, 36.57911251400818 ], [ -76.020316402538342, 36.579175609457927 ], [ -76.020272647804362, 36.579248101197692 ], [ -76.02025041458468, 36.579257306154716 ], [ -76.020251126230093, 36.579311387968595 ], [ -76.020195721021409, 36.579347920797574 ], [ -76.020174080759077, 36.579402193919272 ], [ -76.020267995446787, 36.579743946799709 ], [ -76.020301760632449, 36.579761687077458 ] ], [ [ -76.020366444099423, 36.57958084037044 ], [ -76.020299388331807, 36.579581414379035 ], [ -76.020287975144043, 36.57956348277326 ], [ -76.020298439417459, 36.579509305298096 ], [ -76.020264674343835, 36.579491565016944 ], [ -76.020274189738245, 36.579365278459846 ], [ -76.020341245319486, 36.57936470446834 ], [ -76.020375247599134, 36.579400471999023 ], [ -76.020376196581154, 36.579472581079564 ], [ -76.020398785723231, 36.579490417003505 ], [ -76.020410673433901, 36.57954440313798 ], [ -76.020366444099423, 36.57958084037044 ] ] ] } }
]
}
